[{"OBJECT_NAME":"JILIN-1 07","OBJECT_ID":"2018-008E","EPOCH":"2026-03-09T22:24:26.445888","MEAN_MOTION":15.32987507,"ECCENTRICITY":0.00101791,"INCLINATION":97.1876,"RA_OF_ASC_NODE":91.5817,"ARG_OF_PERICENTER":62.7832,"MEAN_ANOMALY":297.4447,"EPHEMERIS_TYPE":0,"CLASSIFICATION_TYPE":"U","NORAD_CAT_ID":43159,"ELEMENT_SET_NO":999,"REV_AT_EPOCH":44978,"BSTAR":0.00036439521,"MEAN_MOTION_DOT":0.00011559,"MEAN_MOTION_DDOT":0},{"OBJECT_NAME":"STARLINK-33913","OBJECT_ID":"2025-176T","EPOCH":"2026-03-09T11:23:16.276416","MEAN_MOTION":15.30178168,"ECCENTRICITY":0.00011604,"INCLINATION":53.1584,"RA_OF_ASC_NODE":156.1278,"ARG_OF_PERICENTER":63.2631,"MEAN_ANOMALY":296.8489,"EPHEMERIS_TYPE":0,"CLASSIFICATION_TYPE":"U","NORAD_CAT_ID":65215,"ELEMENT_SET_NO":999,"REV_AT_EPOCH":3305,"BSTAR":0.000851099,"MEAN_MOTION_DOT":0.00024915,"MEAN_MOTION_DDOT":0}]
